IRIDIUM 144             
1 43249U 18030A   24059.56647305  .00000103  00000+0  29555-4 0  9993
2 43249  86.3925 281.3051 0002137  89.0886 271.0555 14.34217984309795
IRIDIUM 149             
1 43250U 18030B   24059.85189756  .00000317  00000+0  10611-3 0  9997
2 43250  86.3926 281.1616 0002221  89.3416 270.8035 14.34215140309858
IRIDIUM 157             
1 43251U 18030C   24059.59184240  .00000307  00000+0  10240-3 0  9999
2 43251  86.3926 281.3054 0001951  81.7581 278.3836 14.34217617309791
IRIDIUM 140             
1 43252U 18030D   24059.61087130  .00000086  00000+0  23793-4 0  9995
2 43252  86.3927 281.3123 0002156  97.0988 263.0453 14.34218371309850
IRIDIUM 145             
1 43253U 18030E   24059.59818814  .00000153  00000+0  47442-4 0  9996
2 43253  86.3926 281.2914 0002392  91.6546 268.4923 14.34218545309785
IRIDIUM 146             
1 43254U 18030F   24059.57916331  .00000266  00000+0  87757-4 0  9996
2 43254  86.3925 281.3146 0002369  90.9970 269.1497 14.34218821309792
IRIDIUM 148             
1 43255U 18030G   24059.68698403  .00000029  00000+0  34280-5 0  9997
2 43255  86.3926 281.2999 0002319  82.7310 277.4150 14.34217462309856
IRIDIUM 142             
1 43256U 18030H   24059.86457510  .00000167  00000+0  52459-4 0  9990
2 43256  86.3923 281.1449 0002316  87.9321 272.2140 14.34217563309831
